NUSAT-26 (M SOMERVILLE) 
1 52184U 22033AD  26190.81551701  .00014119  00000+0  32073-3 0  9999
2 52184  97.2338 269.7314 0006681 153.4454 206.7137 15.43107042108195
NUSAT-33 (ALBANIA-2)    
1 55047U 23001AQ  26190.86867638  .00006488  00000+0  23861-3 0  9995
2 55047  97.3064 251.3406 0005269 338.4071  21.6945 15.28205299195770
NUSAT-35 (WILLIAMINA)   
1 55048U 23001AR  26190.84397987  .00010408  00000+0  30106-3 0  9996
2 55048  97.1845 243.0235 0011105  29.0143 331.1716 15.35732296195880
NUSAT-39 (TIKVAH ALPER) 
1 56201U 23054Z   26190.81054505  .00020422  00000+0  39447-3 0  9993
2 56201  97.3098 100.7864 0002702 351.5355   8.5850 15.47820894181954
NUSAT-38 (MARIA AGNESI) 
1 56202U 23054AA  26190.81633510  .00025450  00000+0  43900-3 0  9998
2 56202  97.3036 101.5065 0009694 349.6566  10.4485 15.50963948182014
NUSAT-37 (JOAN CLARKE)  
1 56203U 23054AB  26190.83906176  .00039368  00000+0  50063-3 0  9993
2 56203  97.2607  98.3730 0007136 158.9916 201.1635 15.59251142182177
NUSAT-40 (C SHOEMAKER)  
1 56943U 23084M   26190.84670181  .00112196  00000+0  56600-3 0  9996
2 56943  97.4862 339.2384 0004380 198.0965 162.0148 15.81300042172387
NUSAT-41 (C PAYNE-G)    
1 56944U 23084N   26190.81991568  .00007879  00000+0  27319-3 0  9995
2 56944  97.5536 327.8989 0006065 232.3800 127.6890 15.30080709171247
NUSAT-42 (M WONENBURGER)
1 56966U 23084AL  26190.82158397  .00018175  00000+0  36937-3 0  9992
2 56966  97.5737 335.8982 0006440 163.2758 196.8705 15.46354764171578
NUSAT-44 (MARIA MITCHE*)
1 59122U 24043AA  26190.84006756  .00007370  00000+0  25810-3 0  9991
2 59122  97.5469 331.4502 0006170 147.2057 212.9567 15.29780018130736
NUSAT-50 (NANCY ROMAN)  
1 60493U 24149AB  26189.75039695  .00006365  00000+0  22009-3 0  9997
2 60493  97.3781 270.8602 0004764 117.1706 243.0021 15.30243083105421
NUSAT-48 (HENRIETTA LE*)
1 60498U 24149AG  26189.67383756  .00005961  00000+0  20661-3 0  9996
2 60498  97.3911 271.0648 0004189 178.7267 181.3985 15.30200838105424
NUSAT-49 (KLARA DAN VO*)
1 60500U 24149AJ  26189.78137068  .00006275  00000+0  21664-3 0  9998
2 60500  97.3775 270.9235 0001819 182.0121 178.1113 15.30310950105435
NUSAT-45 (UZMASAT-1)    
1 62640U 25009AH  26190.16272150  .00006566  00000+0  22652-3 0  9998
2 62640  97.3588 271.1656 0001218 198.4587 161.6610 15.30314105 82286
NUSAT-52                
1 66692U 25276AC  26190.00589481  .00003449  00000+0  16331-3 0  9990
2 66692  97.4198 263.1932 0001843 320.6386  39.4715 15.19997969 33739
NUSAT-51 (YVONNE BRILL) 
1 66740U 25276CC  26190.14082323  .00004065  00000+0  18904-3 0  9995
2 66740  97.4203 263.4638 0001563 276.8476  83.2582 15.20520859 33761
