{"fetched_at":"2026-07-10T07:59:11.530Z","source":"https://celestrak.org/NORAD/elements/gp.php?NAME=NUSAT&FORMAT=JSON","constellation":"satellogic","records":[{"OBJECT_NAME":"NUSAT-26 (M SOMERVILLE)","OBJECT_ID":"2022-033AD","EPOCH":"2026-07-09T19:34:20.669664","CLASSIFICATION_TYPE":"U","MEAN_MOTION":15.43107042,"ECCENTRICITY":0.0006681,"INCLINATION":97.2338,"RA_OF_ASC_NODE":269.7314,"ARG_OF_PERICENTER":153.4454,"MEAN_ANOMALY":206.7137,"EPHEMERIS_TYPE":0,"NORAD_CAT_ID":52184,"ELEMENT_SET_NO":999,"REV_AT_EPOCH":10819,"BSTAR":0.00032073,"MEAN_MOTION_DOT":0.00014119,"MEAN_MOTION_DDOT":0},{"OBJECT_NAME":"NUSAT-33 (ALBANIA-2)","OBJECT_ID":"2023-001AQ","EPOCH":"2026-07-09T20:50:53.639232","CLASSIFICATION_TYPE":"U","MEAN_MOTION":15.28205299,"ECCENTRICITY":0.0005269,"INCLINATION":97.3064,"RA_OF_ASC_NODE":251.3406,"ARG_OF_PERICENTER":338.4071,"MEAN_ANOMALY":21.6945,"EPHEMERIS_TYPE":0,"NORAD_CAT_ID":55047,"ELEMENT_SET_NO":999,"REV_AT_EPOCH":19577,"BSTAR":0.00023861,"MEAN_MOTION_DOT":0.00006488,"MEAN_MOTION_DDOT":0},{"OBJECT_NAME":"NUSAT-35 (WILLIAMINA)","OBJECT_ID":"2023-001AR","EPOCH":"2026-07-09T20:15:19.860768","CLASSIFICATION_TYPE":"U","MEAN_MOTION":15.35732296,"ECCENTRICITY":0.0011105,"INCLINATION":97.1845,"RA_OF_ASC_NODE":243.0235,"ARG_OF_PERICENTER":29.0143,"MEAN_ANOMALY":331.1716,"EPHEMERIS_TYPE":0,"NORAD_CAT_ID":55048,"ELEMENT_SET_NO":999,"REV_AT_EPOCH":19588,"BSTAR":0.00030106,"MEAN_MOTION_DOT":0.00010408,"MEAN_MOTION_DDOT":0},{"OBJECT_NAME":"NUSAT-39 (TIKVAH ALPER)","OBJECT_ID":"2023-054Z","EPOCH":"2026-07-09T19:27:11.092320","CLASSIFICATION_TYPE":"U","MEAN_MOTION":15.47820894,"ECCENTRICITY":0.0002702,"INCLINATION":97.3098,"RA_OF_ASC_NODE":100.7864,"ARG_OF_PERICENTER":351.5355,"MEAN_ANOMALY":8.585,"EPHEMERIS_TYPE":0,"NORAD_CAT_ID":56201,"ELEMENT_SET_NO":999,"REV_AT_EPOCH":18195,"BSTAR":0.00039447,"MEAN_MOTION_DOT":0.00020422,"MEAN_MOTION_DDOT":0},{"OBJECT_NAME":"NUSAT-38 (MARIA AGNESI)","OBJECT_ID":"2023-054AA","EPOCH":"2026-07-09T19:35:31.352640","CLASSIFICATION_TYPE":"U","MEAN_MOTION":15.50963948,"ECCENTRICITY":0.0009694,"INCLINATION":97.3036,"RA_OF_ASC_NODE":101.5065,"ARG_OF_PERICENTER":349.6566,"MEAN_ANOMALY":10.4485,"EPHEMERIS_TYPE":0,"NORAD_CAT_ID":56202,"ELEMENT_SET_NO":999,"REV_AT_EPOCH":18201,"BSTAR":0.000439,"MEAN_MOTION_DOT":0.0002545,"MEAN_MOTION_DDOT":0},{"OBJECT_NAME":"NUSAT-37 (JOAN CLARKE)","OBJECT_ID":"2023-054AB","EPOCH":"2026-07-09T20:08:14.936064","CLASSIFICATION_TYPE":"U","MEAN_MOTION":15.59251142,"ECCENTRICITY":0.0007136,"INCLINATION":97.2607,"RA_OF_ASC_NODE":98.373,"ARG_OF_PERICENTER":158.9916,"MEAN_ANOMALY":201.1635,"EPHEMERIS_TYPE":0,"NORAD_CAT_ID":56203,"ELEMENT_SET_NO":999,"REV_AT_EPOCH":18217,"BSTAR":0.00050063,"MEAN_MOTION_DOT":0.00039368,"MEAN_MOTION_DDOT":0},{"OBJECT_NAME":"NUSAT-40 (C SHOEMAKER)","OBJECT_ID":"2023-084M","EPOCH":"2026-07-09T20:19:15.036384","CLASSIFICATION_TYPE":"U","MEAN_MOTION":15.81300042,"ECCENTRICITY":0.000438,"INCLINATION":97.4862,"RA_OF_ASC_NODE":339.2384,"ARG_OF_PERICENTER":198.0965,"MEAN_ANOMALY":162.0148,"EPHEMERIS_TYPE":0,"NORAD_CAT_ID":56943,"ELEMENT_SET_NO":999,"REV_AT_EPOCH":17238,"BSTAR":0.000566,"MEAN_MOTION_DOT":0.00112196,"MEAN_MOTION_DDOT":0},{"OBJECT_NAME":"NUSAT-41 (C PAYNE-G)","OBJECT_ID":"2023-084N","EPOCH":"2026-07-09T19:40:40.714752","CLASSIFICATION_TYPE":"U","MEAN_MOTION":15.30080709,"ECCENTRICITY":0.0006065,"INCLINATION":97.5536,"RA_OF_ASC_NODE":327.8989,"ARG_OF_PERICENTER":232.38,"MEAN_ANOMALY":127.689,"EPHEMERIS_TYPE":0,"NORAD_CAT_ID":56944,"ELEMENT_SET_NO":999,"REV_AT_EPOCH":17124,"BSTAR":0.00027319,"MEAN_MOTION_DOT":0.00007879,"MEAN_MOTION_DDOT":0},{"OBJECT_NAME":"NUSAT-42 (M WONENBURGER)","OBJECT_ID":"2023-084AL","EPOCH":"2026-07-09T19:43:04.855008","CLASSIFICATION_TYPE":"U","MEAN_MOTION":15.46354764,"ECCENTRICITY":0.000644,"INCLINATION":97.5737,"RA_OF_ASC_NODE":335.8982,"ARG_OF_PERICENTER":163.2758,"MEAN_ANOMALY":196.8705,"EPHEMERIS_TYPE":0,"NORAD_CAT_ID":56966,"ELEMENT_SET_NO":999,"REV_AT_EPOCH":17157,"BSTAR":0.00036937,"MEAN_MOTION_DOT":0.00018175,"MEAN_MOTION_DDOT":0},{"OBJECT_NAME":"NUSAT-44 (MARIA MITCHELL)","OBJECT_ID":"2024-043AA","EPOCH":"2026-07-09T20:09:41.837184","CLASSIFICATION_TYPE":"U","MEAN_MOTION":15.29780018,"ECCENTRICITY":0.000617,"INCLINATION":97.5469,"RA_OF_ASC_NODE":331.4502,"ARG_OF_PERICENTER":147.2057,"MEAN_ANOMALY":212.9567,"EPHEMERIS_TYPE":0,"NORAD_CAT_ID":59122,"ELEMENT_SET_NO":999,"REV_AT_EPOCH":13073,"BSTAR":0.0002581,"MEAN_MOTION_DOT":0.0000737,"MEAN_MOTION_DDOT":0},{"OBJECT_NAME":"NUSAT-50 (NANCY ROMAN)","OBJECT_ID":"2024-149AB","EPOCH":"2026-07-08T18:00:34.296480","CLASSIFICATION_TYPE":"U","MEAN_MOTION":15.30243083,"ECCENTRICITY":0.00047644,"INCLINATION":97.3781,"RA_OF_ASC_NODE":270.8602,"ARG_OF_PERICENTER":117.1706,"MEAN_ANOMALY":243.0021,"EPHEMERIS_TYPE":0,"NORAD_CAT_ID":60493,"ELEMENT_SET_NO":999,"REV_AT_EPOCH":10542,"BSTAR":0.00022008917,"MEAN_MOTION_DOT":0.00006365,"MEAN_MOTION_DDOT":0},{"OBJECT_NAME":"NUSAT-48 (HENRIETTA LEAVITT)","OBJECT_ID":"2024-149AG","EPOCH":"2026-07-08T16:10:19.565184","CLASSIFICATION_TYPE":"U","MEAN_MOTION":15.30200838,"ECCENTRICITY":0.00041899,"INCLINATION":97.3911,"RA_OF_ASC_NODE":271.0648,"ARG_OF_PERICENTER":178.7267,"MEAN_ANOMALY":181.3985,"EPHEMERIS_TYPE":0,"NORAD_CAT_ID":60498,"ELEMENT_SET_NO":999,"REV_AT_EPOCH":10542,"BSTAR":0.00020660899,"MEAN_MOTION_DOT":0.00005961,"MEAN_MOTION_DDOT":0},{"OBJECT_NAME":"NUSAT-49 (KLARA DAN VON NEUMANN)","OBJECT_ID":"2024-149AJ","EPOCH":"2026-07-08T18:45:10.426752","CLASSIFICATION_TYPE":"U","MEAN_MOTION":15.3031095,"ECCENTRICITY":0.00018193,"INCLINATION":97.3775,"RA_OF_ASC_NODE":270.9235,"ARG_OF_PERICENTER":182.0121,"MEAN_ANOMALY":178.1113,"EPHEMERIS_TYPE":0,"NORAD_CAT_ID":60500,"ELEMENT_SET_NO":999,"REV_AT_EPOCH":10543,"BSTAR":0.00021663565,"MEAN_MOTION_DOT":0.00006275,"MEAN_MOTION_DDOT":0},{"OBJECT_NAME":"NUSAT-45 (UZMASAT-1)","OBJECT_ID":"2025-009AH","EPOCH":"2026-07-09T03:54:19.137600","CLASSIFICATION_TYPE":"U","MEAN_MOTION":15.30314105,"ECCENTRICITY":0.0001218,"INCLINATION":97.3588,"RA_OF_ASC_NODE":271.1656,"ARG_OF_PERICENTER":198.4587,"MEAN_ANOMALY":161.661,"EPHEMERIS_TYPE":0,"NORAD_CAT_ID":62640,"ELEMENT_SET_NO":999,"REV_AT_EPOCH":8228,"BSTAR":0.00022652311,"MEAN_MOTION_DOT":0.00006566,"MEAN_MOTION_DDOT":0},{"OBJECT_NAME":"NUSAT-52","OBJECT_ID":"2025-276AC","EPOCH":"2026-07-09T00:08:29.311584","CLASSIFICATION_TYPE":"U","MEAN_MOTION":15.19997969,"ECCENTRICITY":0.0001843,"INCLINATION":97.4198,"RA_OF_ASC_NODE":263.1932,"ARG_OF_PERICENTER":320.6386,"MEAN_ANOMALY":39.4715,"EPHEMERIS_TYPE":0,"NORAD_CAT_ID":66692,"ELEMENT_SET_NO":999,"REV_AT_EPOCH":3373,"BSTAR":0.00016331318,"MEAN_MOTION_DOT":0.00003449,"MEAN_MOTION_DDOT":0},{"OBJECT_NAME":"NUSAT-51 (YVONNE BRILL)","OBJECT_ID":"2025-276CC","EPOCH":"2026-07-09T03:22:47.127072","CLASSIFICATION_TYPE":"U","MEAN_MOTION":15.20520859,"ECCENTRICITY":0.00015638,"INCLINATION":97.4203,"RA_OF_ASC_NODE":263.4638,"ARG_OF_PERICENTER":276.8476,"MEAN_ANOMALY":83.2582,"EPHEMERIS_TYPE":0,"NORAD_CAT_ID":66740,"ELEMENT_SET_NO":999,"REV_AT_EPOCH":3376,"BSTAR":0.00018904403,"MEAN_MOTION_DOT":0.00004065,"MEAN_MOTION_DDOT":0}]}
